{
    "links": {
        "self": "http://www.neowsapp.com/rest/v1/neo/3712537?api_key=iIulBulltgU6a56xZRHN4H3l9WmuAYTsLGpBGhQ2"
    },
    "id": "3712537",
    "neo_reference_id": "3712537",
    "name": "(2015 DD199)",
    "designation": "2015 DD199",
    "nasa_jpl_url": "http://ssd.jpl.nasa.gov/sbdb.cgi?sstr=3712537",
    "absolute_magnitude_h": 26.0,
    "estimated_diameter": {
        "kilometers": {
            "estimated_diameter_min": 0.0167708462,
            "estimated_diameter_max": 0.0375007522
        },
        "meters": {
            "estimated_diameter_min": 16.7708462163,
            "estimated_diameter_max": 37.5007521798
        },
        "miles": {
            "estimated_diameter_min": 0.0104209175,
            "estimated_diameter_max": 0.0233018799
        },
        "feet": {
            "estimated_diameter_min": 55.0224631002,
            "estimated_diameter_max": 123.0339677816
        }
    },
    "is_potentially_hazardous_asteroid": false,
    "close_approach_data": [
        {
            "close_approach_date": "2015-02-18",
            "close_approach_date_full": "2015-Feb-18 10:59",
            "epoch_date_close_approach": 1424257140000,
            "relative_velocity": {
                "kilometers_per_second": "7.7009574164",
                "kilometers_per_hour": "27723.446698897",
                "miles_per_hour": "17226.2716446563"
            },
            "miss_distance": {
                "astronomical": "0.0220299667",
                "lunar": "8.5696570463",
                "kilometers": "3295636.094490929",
                "miles": "2047813.3107516602"
            },
            "orbiting_body": "Earth"
        }
    ],
    "orbital_data": {
        "orbit_id": "4",
        "orbit_determination_date": "2019-07-16 06:15:08",
        "first_observation_date": "2015-02-24",
        "last_observation_date": "2015-02-27",
        "data_arc_in_days": 3,
        "observations_used": 10,
        "orbit_uncertainty": "8",
        "minimum_orbit_intersection": ".0189922",
        "jupiter_tisserand_invariant": "3.651",
        "epoch_osculation": "2457078.5",
        "eccentricity": ".5131915465808532",
        "semi_major_axis": "2.013189219456433",
        "inclination": "3.20796544175359",
        "ascending_node_longitude": "162.6849163609442",
        "orbital_period": "1043.338710310814",
        "perihelion_distance": ".9800375303636853",
        "perihelion_argument": "324.452410422288",
        "aphelion_distance": "3.04634090854918",
        "perihelion_time": "2457054.350643918713",
        "mean_anomaly": "8.332642221885374",
        "mean_motion": ".3450461450747427",
        "equinox": "J2000",
        "orbit_class": {
            "orbit_class_type": "APO",
            "orbit_class_description": "Near-Earth asteroid orbits which cross the Earth’s orbit similar to that of 1862 Apollo",
            "orbit_class_range": "a (semi-major axis) > 1.0 AU; q (perihelion) < 1.017 AU"
        }
    },
    "is_sentry_object": false
}